CCSDS_OMM_VERS = 2.0
CREATION_DATE  = 
ORIGINATOR     = 

OBJECT_NAME    = STARLINK-36891
OBJECT_ID      = 2026-040K
CENTER_NAME    = EARTH
REF_FRAME      = TEME
TIME_SYSTEM    = UTC
MEAN_ELEMENT_THEORY = SGP/SGP4

EPOCH          = 2026-03-15T06:00:00.999648
MEAN_MOTION    = 15.92435552
ECCENTRICITY   = .00013205
INCLINATION    = 97.2715
RA_OF_ASC_NODE = 22.9097
ARG_OF_PERICENTER = 98.7940
MEAN_ANOMALY   = 2.5242

EPHEMERIS_TYPE = 0
CLASSIFICATION_TYPE = U
NORAD_CAT_ID   = 68024
ELEMENT_SET_NO = 999
REV_AT_EPOCH   = 331
BSTAR          = -.45254616E-2
MEAN_MOTION_DOT = -.151363E-1
MEAN_MOTION_DDOT = .65150928E-3

CCSDS_OMM_VERS = 2.0
CREATION_DATE  = 
ORIGINATOR     = 

OBJECT_NAME    = STARLINK-36378
OBJECT_ID      = 2026-040L
CENTER_NAME    = EARTH
REF_FRAME      = TEME
TIME_SYSTEM    = UTC
MEAN_ELEMENT_THEORY = SGP/SGP4

EPOCH          = 2026-03-15T06:00:00.999648
MEAN_MOTION    = 15.92499105
ECCENTRICITY   = .00012839
INCLINATION    = 97.2736
RA_OF_ASC_NODE = 22.9147
ARG_OF_PERICENTER = 105.2084
MEAN_ANOMALY   = 4.8945

EPHEMERIS_TYPE = 0
CLASSIFICATION_TYPE = U
NORAD_CAT_ID   = 68025
ELEMENT_SET_NO = 999
REV_AT_EPOCH   = 327
BSTAR          = -.4541192E-2
MEAN_MOTION_DOT = -.1523762E-1
MEAN_MOTION_DDOT = .66003273E-3

CCSDS_OMM_VERS = 2.0
CREATION_DATE  = 
ORIGINATOR     = 

OBJECT_NAME    = STARLINK-36884
OBJECT_ID      = 2026-040M
CENTER_NAME    = EARTH
REF_FRAME      = TEME
TIME_SYSTEM    = UTC
MEAN_ELEMENT_THEORY = SGP/SGP4

EPOCH          = 2026-03-15T06:00:00.999648
MEAN_MOTION    = 15.92462505
ECCENTRICITY   = .00012965
INCLINATION    = 97.2726
RA_OF_ASC_NODE = 22.9123
ARG_OF_PERICENTER = 96.9934
MEAN_ANOMALY   = 8.8118

EPHEMERIS_TYPE = 0
CLASSIFICATION_TYPE = U
NORAD_CAT_ID   = 68026
ELEMENT_SET_NO = 999
REV_AT_EPOCH   = 331
BSTAR          = -.45424427E-2
MEAN_MOTION_DOT = -.1521335E-1
MEAN_MOTION_DDOT = .65784505E-3

CCSDS_OMM_VERS = 2.0
CREATION_DATE  = 
ORIGINATOR     = 

OBJECT_NAME    = STARLINK-36940
OBJECT_ID      = 2026-040N
CENTER_NAME    = EARTH
REF_FRAME      = TEME
TIME_SYSTEM    = UTC
MEAN_ELEMENT_THEORY = SGP/SGP4

EPOCH          = 2026-03-15T06:00:00.999648
MEAN_MOTION    = 15.92105372
ECCENTRICITY   = .00015645
INCLINATION    = 97.2797
RA_OF_ASC_NODE = 22.9452
ARG_OF_PERICENTER = 104.8105
MEAN_ANOMALY   = 74.9741

EPHEMERIS_TYPE = 0
CLASSIFICATION_TYPE = U
NORAD_CAT_ID   = 68027
ELEMENT_SET_NO = 999
REV_AT_EPOCH   = 341
BSTAR          = -.58192013E-2
MEAN_MOTION_DOT = -.1908432E-1
MEAN_MOTION_DDOT = .99942953E-3

CCSDS_OMM_VERS = 2.0
CREATION_DATE  = 
ORIGINATOR     = 

OBJECT_NAME    = STARLINK-36253
OBJECT_ID      = 2026-040P
CENTER_NAME    = EARTH
REF_FRAME      = TEME
TIME_SYSTEM    = UTC
MEAN_ELEMENT_THEORY = SGP/SGP4

EPOCH          = 2026-03-15T06:00:00.999648
MEAN_MOTION    = 15.80723292
ECCENTRICITY   = .00011882
INCLINATION    = 97.2841
RA_OF_ASC_NODE = 22.7300
ARG_OF_PERICENTER = 57.5869
MEAN_ANOMALY   = 344.9405

EPHEMERIS_TYPE = 0
CLASSIFICATION_TYPE = U
NORAD_CAT_ID   = 68028
ELEMENT_SET_NO = 999
REV_AT_EPOCH   = 342
BSTAR          = .13040733E-2
MEAN_MOTION_DOT = .256038E-2
MEAN_MOTION_DDOT = 0

CCSDS_OMM_VERS = 2.0
CREATION_DATE  = 
ORIGINATOR     = 

OBJECT_NAME    = STARLINK-36944
OBJECT_ID      = 2026-040Q
CENTER_NAME    = EARTH
REF_FRAME      = TEME
TIME_SYSTEM    = UTC
MEAN_ELEMENT_THEORY = SGP/SGP4

EPOCH          = 2026-03-15T06:00:00.999648
MEAN_MOTION    = 15.92544640
ECCENTRICITY   = .00013209
INCLINATION    = 97.2725
RA_OF_ASC_NODE = 22.9148
ARG_OF_PERICENTER = 101.6746
MEAN_ANOMALY   = 12.4464

EPHEMERIS_TYPE = 0
CLASSIFICATION_TYPE = U
NORAD_CAT_ID   = 68029
ELEMENT_SET_NO = 999
REV_AT_EPOCH   = 331
BSTAR          = -.45313617E-2
MEAN_MOTION_DOT = -.1524046E-1
MEAN_MOTION_DDOT = .6605639E-3

CCSDS_OMM_VERS = 2.0
CREATION_DATE  = 
ORIGINATOR     = 

OBJECT_NAME    = STARLINK-36942
OBJECT_ID      = 2026-040R
CENTER_NAME    = EARTH
REF_FRAME      = TEME
TIME_SYSTEM    = UTC
MEAN_ELEMENT_THEORY = SGP/SGP4

EPOCH          = 2026-03-15T06:00:00.999648
MEAN_MOTION    = 15.92583531
ECCENTRICITY   = .00013353
INCLINATION    = 97.2742
RA_OF_ASC_NODE = 22.9180
ARG_OF_PERICENTER = 100.0194
MEAN_ANOMALY   = 18.4779

EPHEMERIS_TYPE = 0
CLASSIFICATION_TYPE = U
NORAD_CAT_ID   = 68030
ELEMENT_SET_NO = 999
REV_AT_EPOCH   = 331
BSTAR          = -.45560884E-2
MEAN_MOTION_DOT = -.1535322E-1
MEAN_MOTION_DDOT = .66991126E-3

CCSDS_OMM_VERS = 2.0
CREATION_DATE  = 
ORIGINATOR     = 

OBJECT_NAME    = STARLINK-36913
OBJECT_ID      = 2026-040S
CENTER_NAME    = EARTH
REF_FRAME      = TEME
TIME_SYSTEM    = UTC
MEAN_ELEMENT_THEORY = SGP/SGP4

EPOCH          = 2026-03-15T06:00:00.999648
MEAN_MOTION    = 15.92620220
ECCENTRICITY   = .00013361
INCLINATION    = 97.2746
RA_OF_ASC_NODE = 22.9202
ARG_OF_PERICENTER = 109.4669
MEAN_ANOMALY   = 13.3890

EPHEMERIS_TYPE = 0
CLASSIFICATION_TYPE = U
NORAD_CAT_ID   = 68031
ELEMENT_SET_NO = 999
REV_AT_EPOCH   = 331
BSTAR          = -.45515645E-2
MEAN_MOTION_DOT = -.1536693E-1
MEAN_MOTION_DDOT = .6712665E-3

CCSDS_OMM_VERS = 2.0
CREATION_DATE  = 
ORIGINATOR     = 

OBJECT_NAME    = STARLINK-36935
OBJECT_ID      = 2026-040T
CENTER_NAME    = EARTH
REF_FRAME      = TEME
TIME_SYSTEM    = UTC
MEAN_ELEMENT_THEORY = SGP/SGP4

EPOCH          = 2026-03-15T06:00:00.999648
MEAN_MOTION    = 15.92938390
ECCENTRICITY   = .0001375
INCLINATION    = 97.2772
RA_OF_ASC_NODE = 22.9333
ARG_OF_PERICENTER = 104.9705
MEAN_ANOMALY   = 48.1615

EPHEMERIS_TYPE = 0
CLASSIFICATION_TYPE = U
NORAD_CAT_ID   = 68032
ELEMENT_SET_NO = 999
REV_AT_EPOCH   = 341
BSTAR          = -.4595691E-2
MEAN_MOTION_DOT = -.1576917E-1
MEAN_MOTION_DDOT = .70647445E-3

CCSDS_OMM_VERS = 2.0
CREATION_DATE  = 
ORIGINATOR     = 

OBJECT_NAME    = STARLINK-36947
OBJECT_ID      = 2026-040U
CENTER_NAME    = EARTH
REF_FRAME      = TEME
TIME_SYSTEM    = UTC
MEAN_ELEMENT_THEORY = SGP/SGP4

EPOCH          = 2026-03-15T06:00:00.999648
MEAN_MOTION    = 15.92677797
ECCENTRICITY   = .00012974
INCLINATION    = 97.2749
RA_OF_ASC_NODE = 22.9215
ARG_OF_PERICENTER = 106.5044
MEAN_ANOMALY   = 20.1847

EPHEMERIS_TYPE = 0
CLASSIFICATION_TYPE = U
NORAD_CAT_ID   = 68033
ELEMENT_SET_NO = 999
REV_AT_EPOCH   = 331
BSTAR          = -.45454897E-2
MEAN_MOTION_DOT = -.1539183E-1
MEAN_MOTION_DDOT = .67367592E-3

CCSDS_OMM_VERS = 2.0
CREATION_DATE  = 
ORIGINATOR     = 

OBJECT_NAME    = STARLINK-36939
OBJECT_ID      = 2026-040V
CENTER_NAME    = EARTH
REF_FRAME      = TEME
TIME_SYSTEM    = UTC
MEAN_ELEMENT_THEORY = SGP/SGP4

EPOCH          = 2026-03-15T06:00:00.999648
MEAN_MOTION    = 15.92873633
ECCENTRICITY   = .00014376
INCLINATION    = 97.2773
RA_OF_ASC_NODE = 22.9296
ARG_OF_PERICENTER = 109.8206
MEAN_ANOMALY   = 33.6628

EPHEMERIS_TYPE = 0
CLASSIFICATION_TYPE = U
NORAD_CAT_ID   = 68034
ELEMENT_SET_NO = 999
REV_AT_EPOCH   = 331
BSTAR          = -.45637659E-2
MEAN_MOTION_DOT = -.1560907E-1
MEAN_MOTION_DDOT = .69277614E-3

CCSDS_OMM_VERS = 2.0
CREATION_DATE  = 
ORIGINATOR     = 

OBJECT_NAME    = STARLINK-36943
OBJECT_ID      = 2026-040W
CENTER_NAME    = EARTH
REF_FRAME      = TEME
TIME_SYSTEM    = UTC
MEAN_ELEMENT_THEORY = SGP/SGP4

EPOCH          = 2026-03-15T06:00:00.999648
MEAN_MOTION    = 15.92738637
ECCENTRICITY   = .00014632
INCLINATION    = 97.2793
RA_OF_ASC_NODE = 22.9397
ARG_OF_PERICENTER = 111.8315
MEAN_ANOMALY   = 52.9160

EPHEMERIS_TYPE = 0
CLASSIFICATION_TYPE = U
NORAD_CAT_ID   = 68035
ELEMENT_SET_NO = 999
REV_AT_EPOCH   = 336
BSTAR          = -.52624004E-2
MEAN_MOTION_DOT = -.1784519E-1
MEAN_MOTION_DDOT = .88729999E-3

