STARLINK-36891          
1 68024U 26040K   26074.25001157 -.01513630  65151-3 -45255-2 0  9997
2 68024  97.2715  22.9097 0001320  98.7940   2.5242 15.92435552  3318
STARLINK-36378          
1 68025U 26040L   26074.25001157 -.01523762  66003-3 -45412-2 0  9997
2 68025  97.2736  22.9147 0001283 105.2084   4.8945 15.92499105  3273
STARLINK-36884          
1 68026U 26040M   26074.25001157 -.01521335  65785-3 -45424-2 0  9991
2 68026  97.2726  22.9123 0001296  96.9934   8.8118 15.92462505  3316
STARLINK-36940          
1 68027U 26040N   26074.25001157 -.01908432  99943-3 -58192-2 0  9998
2 68027  97.2797  22.9452 0001564 104.8105  74.9741 15.92105372  3410
STARLINK-36253          
1 68028U 26040P   26074.25001157  .00256038  00000+0  13041-2 0  9990
2 68028  97.2841  22.7300 0001188  57.5869 344.9405 15.80723292  3426
STARLINK-36944          
1 68029U 26040Q   26074.25001157 -.01524046  66056-3 -45314-2 0  9996
2 68029  97.2725  22.9148 0001320 101.6746  12.4464 15.92544640  3314
STARLINK-36942          
1 68030U 26040R   26074.25001157 -.01535322  66991-3 -45561-2 0  9999
2 68030  97.2742  22.9180 0001335 100.0194  18.4779 15.92583531  3314
STARLINK-36913          
1 68031U 26040S   26074.25001157 -.01536693  67127-3 -45516-2 0  9994
2 68031  97.2746  22.9202 0001336 109.4669  13.3890 15.92620220  3310
STARLINK-36935          
1 68032U 26040T   26074.25001157 -.01576917  70647-3 -45957-2 0  9998
2 68032  97.2772  22.9333 0001375 104.9705  48.1615 15.92938390  3411
STARLINK-36947          
1 68033U 26040U   26074.25001157 -.01539183  67368-3 -45455-2 0  9992
2 68033  97.2749  22.9215 0001297 106.5044  20.1847 15.92677797  3319
STARLINK-36939          
1 68034U 26040V   26074.25001157 -.01560907  69278-3 -45638-2 0  9996
2 68034  97.2773  22.9296 0001437 109.8206  33.6628 15.92873633  3311
STARLINK-36943          
1 68035U 26040W   26074.25001157 -.01784519  88730-3 -52624-2 0  9991
2 68035  97.2793  22.9397 0001463 111.8315  52.9160 15.92738637  3363
